NOAA 15                 
1 25338U 98030A   22338.55229767  .00000123  00000+0  69624-4 0  9998
2 25338  98.6282   5.7356 0010810 156.6562 203.5111 14.26203147277510
DMSP 5D-3 F15 (USA 147) 
1 25991U 99067A   22338.57784154  .00000129  00000+0  87629-4 0  9993
2 25991  99.0643 333.1678 0011024  68.8243  96.1735 14.16605319187877
DMSP 5D-3 F16 (USA 172) 
1 28054U 03048A   22338.60667674  .00000078  00000+0  65556-4 0  9999
2 28054  99.0018 330.4087 0007068 190.0757 263.1683 14.13711977987063
NOAA 18                 
1 28654U 05018A   22338.60386080  .00000147  00000+0  10295-3 0  9999
2 28654  98.9332  48.7645 0013947 207.1210 152.9235 14.12815956904093
METEOSAT-9 (MSG-2)      
1 28912U 05049B   22337.83026968  .00000132  00000+0  00000+0 0  9993
2 28912   6.4038  65.1719 0001689 188.9612 163.1080  1.00275916 62089
EWS-G1 (GOES 13)        
1 29155U 06018A   22338.63862779  .00000048  00000+0  00000+0 0  9993
2 29155   1.0094  93.6962 0006795 147.2509 123.7260  1.00273424 60570
DMSP 5D-3 F17 (USA 191) 
1 29522U 06050A   22338.52659915  .00000112  00000+0  81522-4 0  9996
2 29522  98.7617 350.3599 0010597 133.6077 226.5977 14.14143337829944
FENGYUN 3A              
1 32958U 08026A   22338.43286097  .00000079  00000+0  58200-4 0  9994
2 32958  98.5281 294.3117 0007656 250.2033 109.8318 14.18766489752321
FENGYUN 2E              
1 33463U 08066A   22338.49958166 -.00000200  00000+0  00000+0 0  9996
2 33463   6.2829  64.2876 0001005 270.8613   4.8126  1.00274957 51141
NOAA 19                 
1 33591U 09005A   22338.55385281  .00000152  00000+0  10715-3 0  9994
2 33591  99.1288  16.1102 0014766  71.9674 288.3105 14.12646017712468
GOES 14                 
1 35491U 09033A   22337.64126157 -.00000087  00000+0  00000+0 0  9990
2 35491   0.1892 261.7425 0018185 321.9342 335.4352  1.00271388 49208
METEOR-M 1              
1 35865U 09049A   22338.42161323  .00000050  00000+0  41488-4 0  9992
2 35865  98.5531 303.6034 0003400  90.4702 269.6866 14.22383290685701
DMSP 5D-3 F18 (USA 210) 
1 35951U 09057A   22338.56770391  .00000200  00000+0  12878-3 0  9990
2 35951  98.7441 313.9376 0010665 327.8203  32.2318 14.13597229677140
GOES 15                 
1 36411U 10008A   22338.62382517  .00000061  00000+0  00000+0 0  9991
2 36411   0.1440 282.9765 0003186 283.8294 323.3433  1.00280494 46716
COMS 1                  
1 36744U 10032A   22338.58233293 -.00000335  00000+0  00000+0 0  9993
2 36744   1.5094  91.6978 0001030 158.7906 160.6978  1.00271843 38144
FENGYUN 3B              
1 37214U 10059A   22337.08387742 -.00000046  00000+0  10242-6 0  9993
2 37214  99.0920 346.0601 0021368 238.5702 121.3392 14.14275871624794
SUOMI NPP               
1 37849U 11061A   22338.58342038  .00000056  00000+0  47512-4 0  9994
2 37849  98.7497 274.8816 0001139 100.0718  72.6406 14.19522771575320
FENGYUN 2F              
1 38049U 12002A   22338.51429385 -.00000350  00000+0  00000+0 0  9991
2 38049   4.2082  78.3662 0002539 265.3144  27.1027  1.00268363 39930
METEOSAT-10 (MSG-3)     
1 38552U 12035B   22338.25343057  .00000071  00000+0  00000+0 0  9997
2 38552   1.8015  49.5412 0001665 151.6008 332.7510  1.00274694 37918
METOP-B                 
1 38771U 12049A   22338.63275905  .00000082  00000+0  57463-4 0  9995
2 38771  98.7086  35.9811 0000546 123.2938  31.2521 14.21480741529907
FENGYUN 3C              
1 39260U 13052A   22338.50047001  .00000067  00000+0  54934-4 0  9997
2 39260  98.4414 357.9012 0011740 139.9298 220.2744 14.15963642475988
METEOR-M 2              
1 40069U 14037A   22338.54517492 -.00000001  00000+0  18683-4 0  9990
2 40069  98.4269 348.5517 0005649 176.8741 183.2472 14.20728275436019
HIMAWARI-8              
1 40267U 14060A   22338.58772911 -.00000266  00000+0  00000+0 0  9991
2 40267   0.0177 139.5312 0001427 130.2426 155.8402  1.00273285 29815
FENGYUN 2G              
1 40367U 14090A   22338.54416729 -.00000292  00000+0  00000+0 0  9992
2 40367   2.3613  87.7195 0002054 214.5028  66.5100  1.00268607 29051
METEOSAT-11 (MSG-4)     
1 40732U 15034A   22338.32324970  .00000003  00000+0  00000+0 0  9998
2 40732   0.4814 350.9420 0000710 123.7051  74.8582  1.00270371 27076
ELEKTRO-L 2             
1 41105U 15074A   22338.39211002 -.00000107  00000+0  00000+0 0  9991
2 41105   3.4131  86.1126 0002746 141.8046 331.9288  1.00270274 25578
HIMAWARI-9              
1 41836U 16064A   22338.58772912 -.00000266  00000+0  00000+0 0  9991
2 41836   0.0292  95.8204 0001618 192.8243 137.0628  1.00268551 22245
GOES 16                 
1 41866U 16071A   22338.37999409 -.00000240  00000+0  00000+0 0  9993
2 41866   0.0586 256.4559 0000832  18.7005 219.6317  1.00272665 22165
FENGYUN 4A              
1 41882U 16077A   22338.64433081 -.00000319  00000+0  00000+0 0  9993
2 41882   0.0587 302.9523 0005436  94.9960  11.9203  1.00264413 22049
CYGFM05                 
1 41884U 16078A   22338.12693000  .00002842  00000+0  14003-3 0  9992
2 41884  34.9551 224.3426 0014174 176.6878 183.3930 15.17438954330568
CYGFM04                 
1 41885U 16078B   22338.05252488  .00002988  00000+0  14486-3 0  9992
2 41885  34.9482 213.0708 0013031 194.9664 165.0663 15.17991911330609
CYGFM02                 
1 41886U 16078C   22338.03903791  .00003071  00000+0  14865-3 0  9996
2 41886  34.9573 215.4190 0013526 188.3362 171.7127 15.18032003330689
CYGFM01                 
1 41887U 16078D   22338.08501672  .00002985  00000+0  14781-3 0  9994
2 41887  34.9519 227.2723 0014663 175.1612 184.9244 15.17237750330500
CYGFM08                 
1 41888U 16078E   22338.08181733  .00002766  00000+0  13519-3 0  9992
2 41888  34.9489 219.1272 0014090 188.6402 171.4069 15.17731258330649
CYGFM06                 
1 41889U 16078F   22338.08337846  .00002849  00000+0  13800-3 0  9996
2 41889  34.9567 213.7906 0012550 189.2987 170.7494 15.18048943330631
CYGFM07                 
1 41890U 16078G   22338.07540838  .00002724  00000+0  13231-3 0  9994
2 41890  34.9506 212.7087 0012474 194.0303 166.0064 15.17976139330611
CYGFM03                 
1 41891U 16078H   22338.07397983  .00002719  00000+0  13209-3 0  9995
2 41891  34.9537 213.2309 0011956 192.0052 168.0377 15.17979365330604
FENGYUN 3D              
1 43010U 17072A   22338.54401387  .00000065  00000+0  52548-4 0  9993
2 43010  98.8359 282.4365 0002084 121.5388 238.5982 14.19115110261891
NOAA 20                 
1 43013U 17073A   22338.58414169  .00000045  00000+0  41990-4 0  9990
2 43013  98.7336 274.5801 0000635  62.0059 298.1182 14.19563336261362
GOES 17                 
1 43226U 18022A   22338.54369161  .00000107  00000+0  00000+0 0  9999
2 43226   0.0260 136.1239 0000597 128.6765 226.9559  1.00273657 17487
FENGYUN 2H              
1 43491U 18050A   22338.56909451 -.00000115  00000+0  00000+0 0  9998
2 43491   1.5790  94.0110 0003211  79.1404 183.9286  1.00268228 16498
METOP-C                 
1 43689U 18087A   22338.56883348  .00000080  00000+0  56786-4 0  9990
2 43689  98.7131  35.9557 0002152 260.1116  99.9819 14.21486750211470
GEO-KOMPSAT-2A          
1 43823U 18100A   22338.62272900 -.00000335  00000+0  00000+0 0  9996
2 43823   0.0294  84.6640 0000372  56.9208 284.2776  1.00270570 14673
METEOR-M2 2             
1 44387U 19038A   22338.50626669  .00000011  00000+0  24432-4 0  9995
2 44387  98.7475 298.1112 0002045 117.0627 243.0754 14.23732742177608
FENGYUN 3E              
1 49008U 21062A   22338.28745883 -.00000028  00000+0  75273-5 0  9994
2 49008  98.7170 337.6165 0001275 183.5628 176.5540 14.19747145 73410
GOES 18                 
1 51850U 22021A   22336.79858193  .00000101  00000+0  00000+0 0  9992
2 51850   0.0254 142.9864 0001839 104.3997 334.7920  1.00271308  2822
JPSS-2                  
1 54234U 22150A   22337.64106843  .00000090  00000+0  57965-4 0  9991
2 54234  98.6986 273.7891 0023452 173.3101 186.8352 14.24093030  3300
